ONEWEB-0564             
1 55801U 23029F   25295.10681595  .00000091  00000+0  19214-3 0  9992
2 55801  87.9198 321.9550 0001612  83.8124 276.3193 13.20770584129723
ONEWEB-0638             
1 55802U 23029G   25295.14439855 -.00000247  00000+0 -70156-3 0  9994
2 55802  87.9020 337.1915 0001328  97.5384 262.5897 13.14503752128121
ONEWEB-0639             
1 55803U 23029H   25295.19463976  .00000112  00000+0  24689-3 0  9990
2 55803  87.9244 352.3335 0002528 123.7449 236.3925 13.19724369127519
ONEWEB-0640             
1 55804U 23029J   25295.15391831 -.00000200  00000+0 -57428-3 0  9994
2 55804  87.9024 337.1745 0001334 119.4523 240.6740 13.14503906128141
ONEWEB-0641             
1 55805U 23029K   25295.18990103  .00000094  00000+0  20142-3 0  9997
2 55805  87.9257 352.3106 0001993 104.3717 255.7637 13.19725065127529
ONEWEB-0642             
1 55806U 23029L   25295.18516154  .00000059  00000+0  11476-3 0  9999
2 55806  87.9245 352.3399 0002573 115.3063 244.8336 13.19724528127519
ONEWEB-0643             
1 55807U 23029M   25295.12378770  .00000190  00000+0  47901-3 0  9992
2 55807  87.9033 337.1654 0002527 105.4761 254.6648 13.14503729128119
ONEWEB-0644             
1 55808U 23029N   25295.18041625  .00000118  00000+0  26317-3 0  9993
2 55808  87.9247 352.3499 0002270 109.2118 250.9260 13.19725049127514
ONEWEB-0645             
1 55809U 23029P   25295.17647427  .00000068  00000+0  13663-3 0  9999
2 55809  87.9244 352.3342 0001852 116.0612 244.0711 13.19727407127514
ONEWEB-0646             
1 55810U 23029Q   25295.14407336  .00000146  00000+0  33328-3 0  9998
2 55810  87.9250 352.3410 0002132 104.4294 255.7076 13.19727542127498
ONEWEB-0648             
1 55811U 23029R   25295.16817410 -.00000282  00000+0 -79480-3 0  9991
2 55811  87.9013 337.1208 0002260 123.6243 236.5103 13.14503194128120
ONEWEB-0649             
1 55812U 23029S   25295.16936647  .00000113  00000+0  25102-3 0  9999
2 55812  87.9252 352.3300 0002019 112.3626 247.7721 13.19725290127532
ONEWEB-0650             
1 55813U 23029T   25295.16463152  .00000079  00000+0  16538-3 0  9990
2 55813  87.9247 352.3400 0002004 103.7658 256.3698 13.19726396127505
ONEWEB-0652             
1 55814U 23029U   25295.14916176 -.00000205  00000+0 -58806-3 0  9995
2 55814  87.9025 337.1442 0001835  91.3937 268.7403 13.14503328128099
ONEWEB-0653             
1 55815U 23029V   25295.13330102  .00000027  00000+0  38556-4 0  9995
2 55815  87.9026 337.1374 0001611  95.2496 264.8818 13.14500821128126
ONEWEB-0654             
1 55816U 23029W   25295.20466465  .00000003  00000+0 -25246-4 0  9993
2 55816  87.9026 337.1220 0001670  85.9542 274.1778 13.14502481128156
ONEWEB-0656             
1 55817U 23029X   25295.17626319  .00000139  00000+0  31097-3 0  9995
2 55817  87.9212 321.8934 0001706  80.5068 279.6258 13.20771241129737
