[{"OBJECT_NAME":"ONEWEB-0564","OBJECT_ID":"2023-029F","EPOCH":"2025-10-22T02:33:48.898080","MEAN_MOTION":13.20770584,"ECCENTRICITY":0.0001612,"INCLINATION":87.9198,"RA_OF_ASC_NODE":321.955,"ARG_OF_PERICENTER":83.8124,"MEAN_ANOMALY":276.3193,"EPHEMERIS_TYPE":0,"CLASSIFICATION_TYPE":"U","NORAD_CAT_ID":55801,"ELEMENT_SET_NO":999,"REV_AT_EPOCH":12972,"BSTAR":0.00019214,"MEAN_MOTION_DOT":9.1e-7,"MEAN_MOTION_DDOT":0},{"OBJECT_NAME":"ONEWEB-0638","OBJECT_ID":"2023-029G","EPOCH":"2025-10-22T03:27:56.034720","MEAN_MOTION":13.14503752,"ECCENTRICITY":0.0001328,"INCLINATION":87.902,"RA_OF_ASC_NODE":337.1915,"ARG_OF_PERICENTER":97.5384,"MEAN_ANOMALY":262.5897,"EPHEMERIS_TYPE":0,"CLASSIFICATION_TYPE":"U","NORAD_CAT_ID":55802,"ELEMENT_SET_NO":999,"REV_AT_EPOCH":12812,"BSTAR":-0.00070156,"MEAN_MOTION_DOT":-2.47e-6,"MEAN_MOTION_DDOT":0},{"OBJECT_NAME":"ONEWEB-0639","OBJECT_ID":"2023-029H","EPOCH":"2025-10-22T04:40:16.875264","MEAN_MOTION":13.19724369,"ECCENTRICITY":0.0002528,"INCLINATION":87.9244,"RA_OF_ASC_NODE":352.3335,"ARG_OF_PERICENTER":123.7449,"MEAN_ANOMALY":236.3925,"EPHEMERIS_TYPE":0,"CLASSIFICATION_TYPE":"U","NORAD_CAT_ID":55803,"ELEMENT_SET_NO":999,"REV_AT_EPOCH":12751,"BSTAR":0.00024689,"MEAN_MOTION_DOT":1.12e-6,"MEAN_MOTION_DDOT":0},{"OBJECT_NAME":"ONEWEB-0640","OBJECT_ID":"2023-029J","EPOCH":"2025-10-22T03:41:38.541984","MEAN_MOTION":13.14503906,"ECCENTRICITY":0.0001334,"INCLINATION":87.9024,"RA_OF_ASC_NODE":337.1745,"ARG_OF_PERICENTER":119.4523,"MEAN_ANOMALY":240.674,"EPHEMERIS_TYPE":0,"CLASSIFICATION_TYPE":"U","NORAD_CAT_ID":55804,"ELEMENT_SET_NO":999,"REV_AT_EPOCH":12814,"BSTAR":-0.00057428,"MEAN_MOTION_DOT":-2.0e-6,"MEAN_MOTION_DDOT":0},{"OBJECT_NAME":"ONEWEB-0641","OBJECT_ID":"2023-029K","EPOCH":"2025-10-22T04:33:27.448992","MEAN_MOTION":13.19725065,"ECCENTRICITY":0.0001993,"INCLINATION":87.9257,"RA_OF_ASC_NODE":352.3106,"ARG_OF_PERICENTER":104.3717,"MEAN_ANOMALY":255.7637,"EPHEMERIS_TYPE":0,"CLASSIFICATION_TYPE":"U","NORAD_CAT_ID":55805,"ELEMENT_SET_NO":999,"REV_AT_EPOCH":12752,"BSTAR":0.00020142,"MEAN_MOTION_DOT":9.4e-7,"MEAN_MOTION_DDOT":0},{"OBJECT_NAME":"ONEWEB-0642","OBJECT_ID":"2023-029L","EPOCH":"2025-10-22T04:26:37.957056","MEAN_MOTION":13.19724528,"ECCENTRICITY":0.0002573,"INCLINATION":87.9245,"RA_OF_ASC_NODE":352.3399,"ARG_OF_PERICENTER":115.3063,"MEAN_ANOMALY":244.8336,"EPHEMERIS_TYPE":0,"CLASSIFICATION_TYPE":"U","NORAD_CAT_ID":55806,"ELEMENT_SET_NO":999,"REV_AT_EPOCH":12751,"BSTAR":0.00011476,"MEAN_MOTION_DOT":5.9e-7,"MEAN_MOTION_DDOT":0},{"OBJECT_NAME":"ONEWEB-0643","OBJECT_ID":"2023-029M","EPOCH":"2025-10-22T02:58:15.257280","MEAN_MOTION":13.14503729,"ECCENTRICITY":0.0002527,"INCLINATION":87.9033,"RA_OF_ASC_NODE":337.1654,"ARG_OF_PERICENTER":105.4761,"MEAN_ANOMALY":254.6648,"EPHEMERIS_TYPE":0,"CLASSIFICATION_TYPE":"U","NORAD_CAT_ID":55807,"ELEMENT_SET_NO":999,"REV_AT_EPOCH":12811,"BSTAR":0.00047901,"MEAN_MOTION_DOT":1.9e-6,"MEAN_MOTION_DDOT":0},{"OBJECT_NAME":"ONEWEB-0644","OBJECT_ID":"2023-029N","EPOCH":"2025-10-22T04:19:47.964000","MEAN_MOTION":13.19725049,"ECCENTRICITY":0.000227,"INCLINATION":87.9247,"RA_OF_ASC_NODE":352.3499,"ARG_OF_PERICENTER":109.2118,"MEAN_ANOMALY":250.926,"EPHEMERIS_TYPE":0,"CLASSIFICATION_TYPE":"U","NORAD_CAT_ID":55808,"ELEMENT_SET_NO":999,"REV_AT_EPOCH":12751,"BSTAR":0.00026317,"MEAN_MOTION_DOT":1.18e-6,"MEAN_MOTION_DDOT":0},{"OBJECT_NAME":"ONEWEB-0645","OBJECT_ID":"2023-029P","EPOCH":"2025-10-22T04:14:07.376928","MEAN_MOTION":13.19727407,"ECCENTRICITY":0.0001852,"INCLINATION":87.9244,"RA_OF_ASC_NODE":352.3342,"ARG_OF_PERICENTER":116.0612,"MEAN_ANOMALY":244.0711,"EPHEMERIS_TYPE":0,"CLASSIFICATION_TYPE":"U","NORAD_CAT_ID":55809,"ELEMENT_SET_NO":999,"REV_AT_EPOCH":12751,"BSTAR":0.00013663,"MEAN_MOTION_DOT":6.8e-7,"MEAN_MOTION_DDOT":0},{"OBJECT_NAME":"ONEWEB-0646","OBJECT_ID":"2023-029Q","EPOCH":"2025-10-22T03:27:27.938304","MEAN_MOTION":13.19727542,"ECCENTRICITY":0.0002132,"INCLINATION":87.925,"RA_OF_ASC_NODE":352.341,"ARG_OF_PERICENTER":104.4294,"MEAN_ANOMALY":255.7076,"EPHEMERIS_TYPE":0,"CLASSIFICATION_TYPE":"U","NORAD_CAT_ID":55810,"ELEMENT_SET_NO":999,"REV_AT_EPOCH":12749,"BSTAR":0.00033328,"MEAN_MOTION_DOT":1.46e-6,"MEAN_MOTION_DDOT":0},{"OBJECT_NAME":"ONEWEB-0648","OBJECT_ID":"2023-029R","EPOCH":"2025-10-22T04:02:10.242240","MEAN_MOTION":13.14503194,"ECCENTRICITY":0.000226,"INCLINATION":87.9013,"RA_OF_ASC_NODE":337.1208,"ARG_OF_PERICENTER":123.6243,"MEAN_ANOMALY":236.5103,"EPHEMERIS_TYPE":0,"CLASSIFICATION_TYPE":"U","NORAD_CAT_ID":55811,"ELEMENT_SET_NO":999,"REV_AT_EPOCH":12812,"BSTAR":-0.0007948,"MEAN_MOTION_DOT":-2.82e-6,"MEAN_MOTION_DDOT":0},{"OBJECT_NAME":"ONEWEB-0649","OBJECT_ID":"2023-029S","EPOCH":"2025-10-22T04:03:53.263008","MEAN_MOTION":13.1972529,"ECCENTRICITY":0.0002019,"INCLINATION":87.9252,"RA_OF_ASC_NODE":352.33,"ARG_OF_PERICENTER":112.3626,"MEAN_ANOMALY":247.7721,"EPHEMERIS_TYPE":0,"CLASSIFICATION_TYPE":"U","NORAD_CAT_ID":55812,"ELEMENT_SET_NO":999,"REV_AT_EPOCH":12753,"BSTAR":0.00025102,"MEAN_MOTION_DOT":1.13e-6,"MEAN_MOTION_DDOT":0},{"OBJECT_NAME":"ONEWEB-0650","OBJECT_ID":"2023-029T","EPOCH":"2025-10-22T03:57:04.163328","MEAN_MOTION":13.19726396,"ECCENTRICITY":0.0002004,"INCLINATION":87.9247,"RA_OF_ASC_NODE":352.34,"ARG_OF_PERICENTER":103.7658,"MEAN_ANOMALY":256.3698,"EPHEMERIS_TYPE":0,"CLASSIFICATION_TYPE":"U","NORAD_CAT_ID":55813,"ELEMENT_SET_NO":999,"REV_AT_EPOCH":12750,"BSTAR":0.00016538,"MEAN_MOTION_DOT":7.9e-7,"MEAN_MOTION_DDOT":0},{"OBJECT_NAME":"ONEWEB-0652","OBJECT_ID":"2023-029U","EPOCH":"2025-10-22T03:34:47.576064","MEAN_MOTION":13.14503328,"ECCENTRICITY":0.0001835,"INCLINATION":87.9025,"RA_OF_ASC_NODE":337.1442,"ARG_OF_PERICENTER":91.3937,"MEAN_ANOMALY":268.7403,"EPHEMERIS_TYPE":0,"CLASSIFICATION_TYPE":"U","NORAD_CAT_ID":55814,"ELEMENT_SET_NO":999,"REV_AT_EPOCH":12809,"BSTAR":-0.00058806,"MEAN_MOTION_DOT":-2.05e-6,"MEAN_MOTION_DDOT":0},{"OBJECT_NAME":"ONEWEB-0653","OBJECT_ID":"2023-029V","EPOCH":"2025-10-22T03:11:57.208128","MEAN_MOTION":13.14500821,"ECCENTRICITY":0.0001611,"INCLINATION":87.9026,"RA_OF_ASC_NODE":337.1374,"ARG_OF_PERICENTER":95.2496,"MEAN_ANOMALY":264.8818,"EPHEMERIS_TYPE":0,"CLASSIFICATION_TYPE":"U","NORAD_CAT_ID":55815,"ELEMENT_SET_NO":999,"REV_AT_EPOCH":12812,"BSTAR":3.8556e-5,"MEAN_MOTION_DOT":2.7e-7,"MEAN_MOTION_DDOT":0},{"OBJECT_NAME":"ONEWEB-0654","OBJECT_ID":"2023-029W","EPOCH":"2025-10-22T04:54:43.025760","MEAN_MOTION":13.14502481,"ECCENTRICITY":0.000167,"INCLINATION":87.9026,"RA_OF_ASC_NODE":337.122,"ARG_OF_PERICENTER":85.9542,"MEAN_ANOMALY":274.1778,"EPHEMERIS_TYPE":0,"CLASSIFICATION_TYPE":"U","NORAD_CAT_ID":55816,"ELEMENT_SET_NO":999,"REV_AT_EPOCH":12815,"BSTAR":-2.5246e-5,"MEAN_MOTION_DOT":3.0e-8,"MEAN_MOTION_DDOT":0},{"OBJECT_NAME":"ONEWEB-0656","OBJECT_ID":"2023-029X","EPOCH":"2025-10-22T04:13:49.139616","MEAN_MOTION":13.20771241,"ECCENTRICITY":0.0001706,"INCLINATION":87.9212,"RA_OF_ASC_NODE":321.8934,"ARG_OF_PERICENTER":80.5068,"MEAN_ANOMALY":279.6258,"EPHEMERIS_TYPE":0,"CLASSIFICATION_TYPE":"U","NORAD_CAT_ID":55817,"ELEMENT_SET_NO":999,"REV_AT_EPOCH":12973,"BSTAR":0.00031097,"MEAN_MOTION_DOT":1.39e-6,"MEAN_MOTION_DDOT":0}]
